CCSDS_OMM_VERS = 2.0
CREATION_DATE  = 
ORIGINATOR     = 

OBJECT_NAME    = COSMOS 2597 (RODNIK-S 22)
OBJECT_ID      = 2025-273A
CENTER_NAME    = EARTH
REF_FRAME      = TEME
TIME_SYSTEM    = UTC
MEAN_ELEMENT_THEORY = SGP/SGP4

EPOCH          = 2025-12-04T15:49:49.728576
MEAN_MOTION    = 12.41951066
ECCENTRICITY   = .00080984
INCLINATION    = 82.4982
RA_OF_ASC_NODE = 291.4672
ARG_OF_PERICENTER = 308.1672
MEAN_ANOMALY   = 51.8677

EPHEMERIS_TYPE = 0
CLASSIFICATION_TYPE = U
NORAD_CAT_ID   = 66647
ELEMENT_SET_NO = 999
REV_AT_EPOCH   = 113
BSTAR          = -.3184357E-4
MEAN_MOTION_DOT = .5E-7
MEAN_MOTION_DDOT = 0

CCSDS_OMM_VERS = 2.0
CREATION_DATE  = 
ORIGINATOR     = 

OBJECT_NAME    = COSMOS 2598 (RODNIK-S 23)
OBJECT_ID      = 2025-273B
CENTER_NAME    = EARTH
REF_FRAME      = TEME
TIME_SYSTEM    = UTC
MEAN_ELEMENT_THEORY = SGP/SGP4

EPOCH          = 2025-12-04T06:06:47.884896
MEAN_MOTION    = 12.42253119
ECCENTRICITY   = .0008196
INCLINATION    = 82.5023
RA_OF_ASC_NODE = 291.7242
ARG_OF_PERICENTER = 297.6387
MEAN_ANOMALY   = 62.3860

EPHEMERIS_TYPE = 0
CLASSIFICATION_TYPE = U
NORAD_CAT_ID   = 66648
ELEMENT_SET_NO = 999
REV_AT_EPOCH   = 108
BSTAR          = -.20719747E-4
MEAN_MOTION_DOT = .7E-7
MEAN_MOTION_DDOT = 0

CCSDS_OMM_VERS = 2.0
CREATION_DATE  = 
ORIGINATOR     = 

OBJECT_NAME    = COSMOS 2599 (RODNIK-S 24)
OBJECT_ID      = 2025-273C
CENTER_NAME    = EARTH
REF_FRAME      = TEME
TIME_SYSTEM    = UTC
MEAN_ELEMENT_THEORY = SGP/SGP4

EPOCH          = 2025-12-04T15:52:44.897664
MEAN_MOTION    = 12.41671792
ECCENTRICITY   = .0008324
INCLINATION    = 82.5023
RA_OF_ASC_NODE = 291.4778
ARG_OF_PERICENTER = 318.4721
MEAN_ANOMALY   = 41.5725

EPHEMERIS_TYPE = 0
CLASSIFICATION_TYPE = U
NORAD_CAT_ID   = 66649
ELEMENT_SET_NO = 999
REV_AT_EPOCH   = 113
BSTAR          = -.35781314E-4
MEAN_MOTION_DOT = .5E-7
MEAN_MOTION_DDOT = 0

CCSDS_OMM_VERS = 2.0
CREATION_DATE  = 
ORIGINATOR     = 

OBJECT_NAME    = 2025-274A
OBJECT_ID      = 2025-274A
CENTER_NAME    = EARTH
REF_FRAME      = TEME
TIME_SYSTEM    = UTC
MEAN_ELEMENT_THEORY = SGP/SGP4

EPOCH          = 2025-12-04T08:48:46.862784
MEAN_MOTION    = 14.91617165
ECCENTRICITY   = .00104087
INCLINATION    = 97.7386
RA_OF_ASC_NODE = 265.7091
ARG_OF_PERICENTER = 283.9382
MEAN_ANOMALY   = 76.0679

EPHEMERIS_TYPE = 0
CLASSIFICATION_TYPE = U
NORAD_CAT_ID   = 66650
ELEMENT_SET_NO = 999
REV_AT_EPOCH   = 115
BSTAR          = .37799921E-3
MEAN_MOTION_DOT = .3743E-4
MEAN_MOTION_DDOT = 0

CCSDS_OMM_VERS = 2.0
CREATION_DATE  = 
ORIGINATOR     = 

OBJECT_NAME    = 2025-274B
OBJECT_ID      = 2025-274B
CENTER_NAME    = EARTH
REF_FRAME      = TEME
TIME_SYSTEM    = UTC
MEAN_ELEMENT_THEORY = SGP/SGP4

EPOCH          = 2025-12-04T08:48:19.804032
MEAN_MOTION    = 14.91698789
ECCENTRICITY   = .00106945
INCLINATION    = 97.7382
RA_OF_ASC_NODE = 265.7090
ARG_OF_PERICENTER = 283.4795
MEAN_ANOMALY   = 76.5232

EPHEMERIS_TYPE = 0
CLASSIFICATION_TYPE = U
NORAD_CAT_ID   = 66651
ELEMENT_SET_NO = 999
REV_AT_EPOCH   = 115
BSTAR          = .84624109E-3
MEAN_MOTION_DOT = .8473E-4
MEAN_MOTION_DDOT = 0

CCSDS_OMM_VERS = 2.0
CREATION_DATE  = 
ORIGINATOR     = 

OBJECT_NAME    = 2025-274C
OBJECT_ID      = 2025-274C
CENTER_NAME    = EARTH
REF_FRAME      = TEME
TIME_SYSTEM    = UTC
MEAN_ELEMENT_THEORY = SGP/SGP4

EPOCH          = 2025-12-04T13:36:58.988160
MEAN_MOTION    = 14.91837495
ECCENTRICITY   = .0010432
INCLINATION    = 97.7387
RA_OF_ASC_NODE = 265.9080
ARG_OF_PERICENTER = 289.3386
MEAN_ANOMALY   = 70.6705

EPHEMERIS_TYPE = 0
CLASSIFICATION_TYPE = U
NORAD_CAT_ID   = 66652
ELEMENT_SET_NO = 999
REV_AT_EPOCH   = 118
BSTAR          = .5252994E-3
MEAN_MOTION_DOT = .5254E-4
MEAN_MOTION_DDOT = 0

CCSDS_OMM_VERS = 2.0
CREATION_DATE  = 
ORIGINATOR     = 

OBJECT_NAME    = 2025-274D
OBJECT_ID      = 2025-274D
CENTER_NAME    = EARTH
REF_FRAME      = TEME
TIME_SYSTEM    = UTC
MEAN_ELEMENT_THEORY = SGP/SGP4

EPOCH          = 2025-12-04T07:10:34.660128
MEAN_MOTION    = 14.91841883
ECCENTRICITY   = .00112269
INCLINATION    = 97.7384
RA_OF_ASC_NODE = 265.6445
ARG_OF_PERICENTER = 286.1132
MEAN_ANOMALY   = 73.8851

EPHEMERIS_TYPE = 0
CLASSIFICATION_TYPE = U
NORAD_CAT_ID   = 66653
ELEMENT_SET_NO = 999
REV_AT_EPOCH   = 114
BSTAR          = .52688384E-3
MEAN_MOTION_DOT = .5271E-4
MEAN_MOTION_DDOT = 0

CCSDS_OMM_VERS = 2.0
CREATION_DATE  = 
ORIGINATOR     = 

OBJECT_NAME    = JACK E
OBJECT_ID      = 2025-274E
CENTER_NAME    = EARTH
REF_FRAME      = TEME
TIME_SYSTEM    = UTC
MEAN_ELEMENT_THEORY = SGP/SGP4

EPOCH          = 2025-12-04T07:09:23.295456
MEAN_MOTION    = 14.92010124
ECCENTRICITY   = .00118019
INCLINATION    = 97.7388
RA_OF_ASC_NODE = 265.6459
ARG_OF_PERICENTER = 287.6903
MEAN_ANOMALY   = 72.3027

EPHEMERIS_TYPE = 0
CLASSIFICATION_TYPE = U
NORAD_CAT_ID   = 66654
ELEMENT_SET_NO = 999
REV_AT_EPOCH   = 114
BSTAR          = .65044329E-3
MEAN_MOTION_DOT = .655E-4
MEAN_MOTION_DDOT = 0

CCSDS_OMM_VERS = 2.0
CREATION_DATE  = 
ORIGINATOR     = 

OBJECT_NAME    = 2025-274F
OBJECT_ID      = 2025-274F
CENTER_NAME    = EARTH
REF_FRAME      = TEME
TIME_SYSTEM    = UTC
MEAN_ELEMENT_THEORY = SGP/SGP4

EPOCH          = 2025-12-04T05:31:45.048864
MEAN_MOTION    = 14.92233374
ECCENTRICITY   = .00078092
INCLINATION    = 97.7363
RA_OF_ASC_NODE = 265.5807
ARG_OF_PERICENTER = 316.2710
MEAN_ANOMALY   = 43.7889

EPHEMERIS_TYPE = 0
CLASSIFICATION_TYPE = U
NORAD_CAT_ID   = 66655
ELEMENT_SET_NO = 999
REV_AT_EPOCH   = 113
BSTAR          = .65086112E-3
MEAN_MOTION_DOT = .6587E-4
MEAN_MOTION_DDOT = 0

CCSDS_OMM_VERS = 2.0
CREATION_DATE  = 
ORIGINATOR     = 

OBJECT_NAME    = 2025-274G
OBJECT_ID      = 2025-274G
CENTER_NAME    = EARTH
REF_FRAME      = TEME
TIME_SYSTEM    = UTC
MEAN_ELEMENT_THEORY = SGP/SGP4

EPOCH          = 2025-12-04T07:08:04.124544
MEAN_MOTION    = 14.92193852
ECCENTRICITY   = .00124407
INCLINATION    = 97.7385
RA_OF_ASC_NODE = 265.6470
ARG_OF_PERICENTER = 289.2417
MEAN_ANOMALY   = 70.7456

EPHEMERIS_TYPE = 0
CLASSIFICATION_TYPE = U
NORAD_CAT_ID   = 66656
ELEMENT_SET_NO = 999
REV_AT_EPOCH   = 114
BSTAR          = .72889526E-3
MEAN_MOTION_DOT = .7383E-4
MEAN_MOTION_DDOT = 0

CCSDS_OMM_VERS = 2.0
CREATION_DATE  = 
ORIGINATOR     = 

OBJECT_NAME    = SPIRONE
OBJECT_ID      = 2025-274H
CENTER_NAME    = EARTH
REF_FRAME      = TEME
TIME_SYSTEM    = UTC
MEAN_ELEMENT_THEORY = SGP/SGP4

EPOCH          = 2025-12-04T05:30:12.998304
MEAN_MOTION    = 14.92372167
ECCENTRICITY   = .00110869
INCLINATION    = 97.7384
RA_OF_ASC_NODE = 265.5820
ARG_OF_PERICENTER = 308.6851
MEAN_ANOMALY   = 51.3376

EPHEMERIS_TYPE = 0
CLASSIFICATION_TYPE = U
NORAD_CAT_ID   = 66657
ELEMENT_SET_NO = 999
REV_AT_EPOCH   = 113
BSTAR          = .70024403E-3
MEAN_MOTION_DOT = .712E-4
MEAN_MOTION_DDOT = 0

CCSDS_OMM_VERS = 2.0
CREATION_DATE  = 
ORIGINATOR     = 

OBJECT_NAME    = 2025-274J
OBJECT_ID      = 2025-274J
CENTER_NAME    = EARTH
REF_FRAME      = TEME
TIME_SYSTEM    = UTC
MEAN_ELEMENT_THEORY = SGP/SGP4

EPOCH          = 2025-12-04T07:05:28.547520
MEAN_MOTION    = 14.92547645
ECCENTRICITY   = .00116402
INCLINATION    = 97.7385
RA_OF_ASC_NODE = 265.6489
ARG_OF_PERICENTER = 311.4389
MEAN_ANOMALY   = 48.5829

EPHEMERIS_TYPE = 0
CLASSIFICATION_TYPE = U
NORAD_CAT_ID   = 66658
ELEMENT_SET_NO = 999
REV_AT_EPOCH   = 114
BSTAR          = .68929715E-3
MEAN_MOTION_DOT = .704E-4
MEAN_MOTION_DDOT = 0

