COSMOS 2597 (RODNIK-S *)
1 66647U 25273A   25338.65960334  .00000005  00000+0 -31844-4 0  9994
2 66647  82.4982 291.4672 0008098 308.1672  51.8677 12.41951066  1131
COSMOS 2598 (RODNIK-S *)
1 66648U 25273B   25338.25472089  .00000007  00000+0 -20720-4 0  9999
2 66648  82.5023 291.7242 0008196 297.6387  62.3860 12.42253119  1089
COSMOS 2599 (RODNIK-S *)
1 66649U 25273C   25338.66163076  .00000005  00000+0 -35781-4 0  9999
2 66649  82.5023 291.4778 0008324 318.4721  41.5725 12.41671792  1133
2025-274A               
1 66650U 25274A   25338.36720906  .00003743  00000+0  37800-3 0  9994
2 66650  97.7386 265.7091 0010408 283.9382  76.0679 14.91617165  1156
2025-274B               
1 66651U 25274B   25338.36689588  .00008473  00000+0  84624-3 0  9996
2 66651  97.7382 265.7090 0010694 283.4795  76.5232 14.91698789  1153
2025-274C               
1 66652U 25274C   25338.56734940  .00005254  00000+0  52530-3 0  9997
2 66652  97.7387 265.9080 0010432 289.3386  70.6705 14.91837495  1183
2025-274D               
1 66653U 25274D   25338.29901227  .00005271  00000+0  52688-3 0  9995
2 66653  97.7384 265.6445 0011226 286.1132  73.8851 14.91841883  1148
JACK E                  
1 66654U 25274E   25338.29818629  .00006550  00000+0  65044-3 0  9990
2 66654  97.7388 265.6459 0011801 287.6903  72.3027 14.92010124  1145
2025-274F               
1 66655U 25274F   25338.23038251  .00006587  00000+0  65086-3 0  9996
2 66655  97.7363 265.5807 0007809 316.2710  43.7889 14.92233374  1134
2025-274G               
1 66656U 25274G   25338.29726996  .00007383  00000+0  72890-3 0  9999
2 66656  97.7385 265.6470 0012440 289.2417  70.7456 14.92193852  1143
SPIRONE                 
1 66657U 25274H   25338.22931711  .00007120  00000+0  70024-3 0  9992
2 66657  97.7384 265.5820 0011086 308.6851  51.3376 14.92372167  1137
2025-274J               
1 66658U 25274J   25338.29546930  .00007040  00000+0  68930-3 0  9999
2 66658  97.7385 265.6489 0011640 311.4389  48.5829 14.92547645  1142
